{
  "norad_id": 58535,
  "name": "STARLINK-31032",
  "history": [
    {
      "epoch": "2026-03-28T22:32:12.170400",
      "apogee_km": 476.1943095148008,
      "perigee_km": 474.32333245567224,
      "latitude_deg": 50.57190347341634,
      "longitude_deg": 123.64685599994846,
      "semi_major_axis_km": 6853.395820985236,
      "eccentricity": 0.0001365,
      "inclination_deg": 53.1608,
      "raan_deg": 333.2497,
      "arg_perigee_deg": 92.7236,
      "mean_anomaly_deg": 267.392,
      "mean_motion_rev_day": 15.30185347
    }
  ]
}